{
  "type": "FeatureCollection",
  "features": [
    {
      "type": "Feature",
      "properties": {
        "norad_id": 66643,
        "name": "STARLINK-35918",
        "group": "last-30-days",
        "lat": -53.13808686740234,
        "lon": 107.61902242651506,
        "alt_km": 396.7074431041001,
        "timestamp": "2025-12-10T16:57:10.417029+00:00",
        "meta_object_name": "STARLINK-35918",
        "meta_object_id": "2025-271AC",
        "meta_epoch": "2025-12-10T12:00:02.998944",
        "meta_mean_motion": 15.59688071,
        "meta_eccentricity": 0.000123,
        "meta_inclination": 53.1599,
        "meta_ra_of_asc_node": 197.9303,
        "meta_arg_of_pericenter": 110.2798,
        "meta_mean_anomaly": 81.2531,
        "meta_ephemeris_type": 0,
        "meta_classification_type": "U",
        "meta_norad_cat_id": 66643,
        "meta_element_set_no": 999,
        "meta_rev_at_epoch": 388,
        "meta_bstar": -0.027495,
        "meta_mean_motion_dot": -0.01967947,
        "meta_mean_motion_ddot": 0,
        "tle_line1": "1 66643U 25271AC  25344.50003471 -.01967947  00000+0 -27495-1 0  9992",
        "tle_line2": "2 66643  53.1599 197.9303 0001230 110.2798  81.2531 15.59688071  3884"
      },
      "geometry": {
        "type": "Point",
        "coordinates": [
          107.61902242651506,
          -53.13808686740234
        ]
      }
    },
    {
      "type": "Feature",
      "properties": {
        "norad_id": 66644,
        "name": "STARLINK-35938",
        "group": "last-30-days",
        "lat": -53.07694015118822,
        "lon": 110.79903311792172,
        "alt_km": 396.69054370772665,
        "timestamp": "2025-12-10T16:57:10.417038+00:00",
        "meta_object_name": "STARLINK-35938",
        "meta_object_id": "2025-271AD",
        "meta_epoch": "2025-12-10T12:00:02.998944",
        "meta_mean_motion": 15.59686877,
        "meta_eccentricity": 0.0001212,
        "meta_inclination": 53.1597,
        "meta_ra_of_asc_node": 197.9262,
        "meta_arg_of_pericenter": 113.2227,
        "meta_mean_anomaly": 80.2264,
        "meta_ephemeris_type": 0,
        "meta_classification_type": "U",
        "meta_norad_cat_id": 66644,
        "meta_element_set_no": 999,
        "meta_rev_at_epoch": 388,
        "meta_bstar": -0.027452,
        "meta_mean_motion_dot": -0.01965163,
        "meta_mean_motion_ddot": 0,
        "tle_line1": "1 66644U 25271AD  25344.50003471 -.01965163  00000+0 -27452-1 0  9994",
        "tle_line2": "2 66644  53.1597 197.9262 0001212 113.2227  80.2264 15.59686877  3881"
      },
      "geometry": {
        "type": "Point",
        "coordinates": [
          110.79903311792172,
          -53.07694015118822
        ]
      }
    },
    {
      "type": "Feature",
      "properties": {
        "norad_id": 66645,
        "name": "SHENZHOU-22",
        "group": "last-30-days",
        "lat": -32.02693481452843,
        "lon": -105.85108734486322,
        "alt_km": 397.655995568899,
        "timestamp": "2025-12-10T16:57:10.417048+00:00",
        "meta_object_name": "SHENZHOU-22",
        "meta_object_id": "2025-272A",
        "meta_epoch": "2025-12-10T06:43:57.761760",
        "meta_mean_motion": 15.59014677,
        "meta_eccentricity": 0.00088021,
        "meta_inclination": 41.4682,
        "meta_ra_of_asc_node": 31.6356,
        "meta_arg_of_pericenter": 10.5172,
        "meta_mean_anomaly": 349.5849,
        "meta_ephemeris_type": 0,
        "meta_classification_type": "U",
        "meta_norad_cat_id": 66645,
        "meta_element_set_no": 999,
        "meta_rev_at_epoch": 26357,
        "meta_bstar": 0.00043406543,
        "meta_mean_motion_dot": 0.00034646,
        "meta_mean_motion_ddot": 0,
        "tle_line1": "1 66645U 25272A   25344.28052965  .00034646  00000+0  43407-3 0  9993",
        "tle_line2": "2 66645  41.4682  31.6356 0008802  10.5172 349.5849 15.59014677263572"
      },
      "geometry": {
        "type": "Point",
        "coordinates": [
          -105.85108734486322,
          -32.02693481452843
        ]
      }
    },
    {
      "type": "Feature",
      "properties": {
        "norad_id": 66647,
        "name": "COSMOS 2597 (RODNIK-S 22)",
        "group": "last-30-days",
        "lat": 21.90893752141832,
        "lon": -69.251042979328,
        "alt_km": 1497.6550982514118,
        "timestamp": "2025-12-10T16:57:10.417059+00:00",
        "meta_object_name": "COSMOS 2597 (RODNIK-S 22)",
        "meta_object_id": "2025-273A",
        "meta_epoch": "2025-12-10T12:58:02.991360",
        "meta_mean_motion": 12.41951316,
        "meta_eccentricity": 0.0007938,
        "meta_inclination": 82.4985,
        "meta_ra_of_asc_node": 287.8147,
        "meta_arg_of_pericenter": 294.4036,
        "meta_mean_anomaly": 65.6215,
        "meta_ephemeris_type": 0,
        "meta_classification_type": "U",
        "meta_norad_cat_id": 66647,
        "meta_element_set_no": 999,
        "meta_rev_at_epoch": 186,
        "meta_bstar": 0.00027743,
        "meta_mean_motion_dot": 4.8e-07,
        "meta_mean_motion_ddot": 0,
        "tle_line1": "1 66647U 25273A   25344.54031240  .00000048  00000+0  27743-3 0  9992",
        "tle_line2": "2 66647  82.4985 287.8147 0007938 294.4036  65.6215 12.41951316  1862"
      },
      "geometry": {
        "type": "Point",
        "coordinates": [
          -69.251042979328,
          21.90893752141832
        ]
      }
    },
    {
      "type": "Feature",
      "properties": {
        "norad_id": 66648,
        "name": "COSMOS 2598 (RODNIK-S 23)",
        "group": "last-30-days",
        "lat": 48.12541052847845,
        "lon": -63.839756653005125,
        "alt_km": 1495.1424036022336,
        "timestamp": "2025-12-10T16:57:10.417069+00:00",
        "meta_object_name": "COSMOS 2598 (RODNIK-S 23)",
        "meta_object_id": "2025-273B",
        "meta_epoch": "2025-12-10T12:49:39.738144",
        "meta_mean_motion": 12.42861583,
        "meta_eccentricity": 0.0007246,
        "meta_inclination": 82.5033,
        "meta_ra_of_asc_node": 287.8213,
        "meta_arg_of_pericenter": 256.5087,
        "meta_mean_anomaly": 103.5185,
        "meta_ephemeris_type": 0,
        "meta_classification_type": "U",
        "meta_norad_cat_id": 66648,
        "meta_element_set_no": 999,
        "meta_rev_at_epoch": 186,
        "meta_bstar": 0.00012968,
        "meta_mean_motion_dot": 2.8e-07,
        "meta_mean_motion_ddot": 0,
        "tle_line1": "1 66648U 25273B   25344.53448771  .00000028  00000+0  12968-3 0  9994",
        "tle_line2": "2 66648  82.5033 287.8213 0007246 256.5087 103.5185 12.42861583  1864"
      },
      "geometry": {
        "type": "Point",
        "coordinates": [
          -63.839756653005125,
          48.12541052847845
        ]
      }
    },
    {
      "type": "Feature",
      "properties": {
        "norad_id": 66649,
        "name": "COSMOS 2599 (RODNIK-S 24)",
        "group": "last-30-days",
        "lat": 6.906211957682074,
        "lon": -71.35857063325773,
        "alt_km": 1498.304543447718,
        "timestamp": "2025-12-10T16:57:10.417083+00:00",
        "meta_object_name": "COSMOS 2599 (RODNIK-S 24)",
        "meta_object_id": "2025-273C",
        "meta_epoch": "2025-12-10T09:10:48.874368",
        "meta_mean_motion": 12.41671984,
        "meta_eccentricity": 0.0008136,
        "meta_inclination": 82.5026,
        "meta_ra_of_asc_node": 287.9284,
        "meta_arg_of_pericenter": 305.4049,
        "meta_mean_anomaly": 54.6269,
        "meta_ephemeris_type": 0,
        "meta_classification_type": "U",
        "meta_norad_cat_id": 66649,
        "meta_element_set_no": 999,
        "meta_rev_at_epoch": 184,
        "meta_bstar": 0.0004001,
        "meta_mean_motion_dot": 6.4e-07,
        "meta_mean_motion_ddot": 0,
        "tle_line1": "1 66649U 25273C   25344.38251012  .00000064  00000+0  40010-3 0  9997",
        "tle_line2": "2 66649  82.5026 287.9284 0008136 305.4049  54.6269 12.41671984  1847"
      },
      "geometry": {
        "type": "Point",
        "coordinates": [
          -71.35857063325773,
          6.906211957682074
        ]
      }
    },
    {
      "type": "Feature",
      "properties": {
        "norad_id": 66650,
        "name": "BEE-1000",
        "group": "last-30-days",
        "lat": 0.49503450859742454,
        "lon": 91.99851335340362,
        "alt_km": 594.51012221571,
        "timestamp": "2025-12-10T16:57:10.417093+00:00",
        "meta_object_name": "BEE-1000",
        "meta_object_id": "2025-274A",
        "meta_epoch": "2025-12-10T08:06:01.522368",
        "meta_mean_motion": 14.91647427,
        "meta_eccentricity": 0.0010419,
        "meta_inclination": 97.7386,
        "meta_ra_of_asc_node": 271.5692,
        "meta_arg_of_pericenter": 260.6819,
        "meta_mean_anomaly": 99.3221,
        "meta_ephemeris_type": 0,
        "meta_classification_type": "U",
        "meta_norad_cat_id": 66650,
        "meta_element_set_no": 999,
        "meta_rev_at_epoch": 204,
        "meta_bstar": 0.0002871,
        "meta_mean_motion_dot": 2.831e-05,
        "meta_mean_motion_ddot": 0,
        "tle_line1": "1 66650U 25274A   25344.33751762  .00002831  00000+0  28710-3 0  9999",
        "tle_line2": "2 66650  97.7386 271.5692 0010419 260.6819  99.3221 14.91647427  2041"
      },
      "geometry": {
        "type": "Point",
        "coordinates": [
          91.99851335340362,
          0.49503450859742454
        ]
      }
    }
  ]
}